{
  "type": "FeatureCollection",
  "name": "3D ULPIN \u2014 bldg-export-test-001",
  "crs": {
    "type": "name",
    "properties": {
      "name": "urn:ogc:def:crs:OGC:1.3:CRS84"
    }
  },
  "features": [
    {
      "type": "Feature",
      "id": "bldg-export-test-001",
      "properties": {
        "type": "Building",
        "building_id": "bldg-export-test-001",
        "height_m": 14.0,
        "floor_count": 4,
        "total_units": 16
      },
      "geometry": {
        "type": "Polygon",
        "coordinates": [
          [
            [
              77.2283936,
              28.6140622
            ],
            [
              77.2286189,
              28.6125293
            ],
            [
              77.2301035,
              28.6127095
            ],
            [
              77.2298661,
              28.6133911
            ],
            [
              77.2304495,
              28.6131227
            ],
            [
              77.2304495,
              28.6140622
            ],
            [
              77.2283936,
              28.6140622
            ]
          ]
        ]
      }
    },
    {
      "type": "Feature",
      "id": "UNIT_F01_A01",
      "properties": {
        "type": "Unit",
        "unit_id": "UNIT_F01_A01",
        "floor": 1,
        "label": "A01",
        "z_min": 0.0,
        "z_max": 3.5,
        "area_sqm": 7629.93,
        "ulpin": "PARCEL_EXPORT_TEST-BLDGEXPO-F01-UA01-ttnfv2u"
      },
      "geometry": {
        "type": "Polygon",
        "coordinates": [
          [
            [
              77.22942155000001,
              28.61329575
            ],
            [
              77.22942155000001,
              28.612626725252596
            ],
            [
              77.2286189,
              28.6125293
            ],
            [
              77.22850625,
              28.61329575
            ],
            [
              77.22942155000001,
              28.61329575
            ]
          ]
        ]
      }
    },
    {
      "type": "Feature",
      "id": "UNIT_F01_B01",
      "properties": {
        "type": "Unit",
        "unit_id": "UNIT_F01_B01",
        "floor": 1,
        "label": "B01",
        "z_min": 0.0,
        "z_max": 3.5,
        "area_sqm": 4937.15,
        "ulpin": "PARCEL_EXPORT_TEST-BLDGEXPO-F01-UB01-ttnfv2u"
      },
      "geometry": {
        "type": "MultiPolygon",
        "coordinates": [
          [
            [
              [
                77.2304495,
                28.61329575
              ],
              [
                77.2304495,
                28.6131227
              ],
              [
                77.23007335480627,
                28.61329575
              ],
              [
                77.2304495,
                28.61329575
              ]
            ]
          ],
          [
            [
              [
                77.22942155000001,
                28.61329575
              ],
              [
                77.22989931022593,
                28.61329575
              ],
              [
                77.2301035,
                28.6127095
              ],
              [
                77.22942155000001,
                28.612626725252596
              ],
              [
                77.22942155000001,
                28.61329575
              ]
            ]
          ]
        ]
      }
    },
    {
      "type": "Feature",
      "id": "UNIT_F01_A02",
      "properties": {
        "type": "Unit",
        "unit_id": "UNIT_F01_A02",
        "floor": 1,
        "label": "A02",
        "z_min": 0.0,
        "z_max": 3.5,
        "area_sqm": 9175.47,
        "ulpin": "PARCEL_EXPORT_TEST-BLDGEXPO-F01-UA02-ttnfv2u"
      },
      "geometry": {
        "type": "Polygon",
        "coordinates": [
          [
            [
              77.22942155000001,
              28.61329575
            ],
            [
              77.22850625,
              28.61329575
            ],
            [
              77.2283936,
              28.6140622
            ],
            [
              77.22942155000001,
              28.6140622
            ],
            [
              77.22942155000001,
              28.61329575
            ]
          ]
        ]
      }
    },
    {
      "type": "Feature",
      "id": "UNIT_F01_B02",
      "properties": {
        "type": "Unit",
        "unit_id": "UNIT_F01_B02",
        "floor": 1,
        "label": "B02",
        "z_min": 0.0,
        "z_max": 3.5,
        "area_sqm": 9605.14,
        "ulpin": "PARCEL_EXPORT_TEST-BLDGEXPO-F01-UB02-ttnfv2v"
      },
      "geometry": {
        "type": "Polygon",
        "coordinates": [
          [
            [
              77.2304495,
              28.6140622
            ],
            [
              77.2304495,
              28.61329575
            ],
            [
              77.23007335480627,
              28.61329575
            ],
            [
              77.2298661,
              28.6133911
            ],
            [
              77.22989931022593,
              28.61329575
            ],
            [
              77.22942155000001,
              28.61329575
            ],
            [
              77.22942155000001,
              28.6140622
            ],
            [
              77.2304495,
              28.6140622
            ]
          ]
        ]
      }
    },
    {
      "type": "Feature",
      "id": "UNIT_F02_A01",
      "properties": {
        "type": "Unit",
        "unit_id": "UNIT_F02_A01",
        "floor": 2,
        "label": "A01",
        "z_min": 3.5,
        "z_max": 7.0,
        "area_sqm": 7629.93,
        "ulpin": "PARCEL_EXPORT_TEST-BLDGEXPO-F02-UA01-ttnfv2u"
      },
      "geometry": {
        "type": "Polygon",
        "coordinates": [
          [
            [
              77.22942155000001,
              28.61329575
            ],
            [
              77.22942155000001,
              28.612626725252596
            ],
            [
              77.2286189,
              28.6125293
            ],
            [
              77.22850625,
              28.61329575
            ],
            [
              77.22942155000001,
              28.61329575
            ]
          ]
        ]
      }
    },
    {
      "type": "Feature",
      "id": "UNIT_F02_B01",
      "properties": {
        "type": "Unit",
        "unit_id": "UNIT_F02_B01",
        "floor": 2,
        "label": "B01",
        "z_min": 3.5,
        "z_max": 7.0,
        "area_sqm": 4937.15,
        "ulpin": "PARCEL_EXPORT_TEST-BLDGEXPO-F02-UB01-ttnfv2u"
      },
      "geometry": {
        "type": "MultiPolygon",
        "coordinates": [
          [
            [
              [
                77.2304495,
                28.61329575
              ],
              [
                77.2304495,
                28.6131227
              ],
              [
                77.23007335480627,
                28.61329575
              ],
              [
                77.2304495,
                28.61329575
              ]
            ]
          ],
          [
            [
              [
                77.22942155000001,
                28.61329575
              ],
              [
                77.22989931022593,
                28.61329575
              ],
              [
                77.2301035,
                28.6127095
              ],
              [
                77.22942155000001,
                28.612626725252596
              ],
              [
                77.22942155000001,
                28.61329575
              ]
            ]
          ]
        ]
      }
    },
    {
      "type": "Feature",
      "id": "UNIT_F02_A02",
      "properties": {
        "type": "Unit",
        "unit_id": "UNIT_F02_A02",
        "floor": 2,
        "label": "A02",
        "z_min": 3.5,
        "z_max": 7.0,
        "area_sqm": 9175.47,
        "ulpin": "PARCEL_EXPORT_TEST-BLDGEXPO-F02-UA02-ttnfv2u"
      },
      "geometry": {
        "type": "Polygon",
        "coordinates": [
          [
            [
              77.22942155000001,
              28.61329575
            ],
            [
              77.22850625,
              28.61329575
            ],
            [
              77.2283936,
              28.6140622
            ],
            [
              77.22942155000001,
              28.6140622
            ],
            [
              77.22942155000001,
              28.61329575
            ]
          ]
        ]
      }
    },
    {
      "type": "Feature",
      "id": "UNIT_F02_B02",
      "properties": {
        "type": "Unit",
        "unit_id": "UNIT_F02_B02",
        "floor": 2,
        "label": "B02",
        "z_min": 3.5,
        "z_max": 7.0,
        "area_sqm": 9605.14,
        "ulpin": "PARCEL_EXPORT_TEST-BLDGEXPO-F02-UB02-ttnfv2v"
      },
      "geometry": {
        "type": "Polygon",
        "coordinates": [
          [
            [
              77.2304495,
              28.6140622
            ],
            [
              77.2304495,
              28.61329575
            ],
            [
              77.23007335480627,
              28.61329575
            ],
            [
              77.2298661,
              28.6133911
            ],
            [
              77.22989931022593,
              28.61329575
            ],
            [
              77.22942155000001,
              28.61329575
            ],
            [
              77.22942155000001,
              28.6140622
            ],
            [
              77.2304495,
              28.6140622
            ]
          ]
        ]
      }
    },
    {
      "type": "Feature",
      "id": "UNIT_F03_A01",
      "properties": {
        "type": "Unit",
        "unit_id": "UNIT_F03_A01",
        "floor": 3,
        "label": "A01",
        "z_min": 7.0,
        "z_max": 10.5,
        "area_sqm": 7629.93,
        "ulpin": "PARCEL_EXPORT_TEST-BLDGEXPO-F03-UA01-ttnfv2u"
      },
      "geometry": {
        "type": "Polygon",
        "coordinates": [
          [
            [
              77.22942155000001,
              28.61329575
            ],
            [
              77.22942155000001,
              28.612626725252596
            ],
            [
              77.2286189,
              28.6125293
            ],
            [
              77.22850625,
              28.61329575
            ],
            [
              77.22942155000001,
              28.61329575
            ]
          ]
        ]
      }
    },
    {
      "type": "Feature",
      "id": "UNIT_F03_B01",
      "properties": {
        "type": "Unit",
        "unit_id": "UNIT_F03_B01",
        "floor": 3,
        "label": "B01",
        "z_min": 7.0,
        "z_max": 10.5,
        "area_sqm": 4937.15,
        "ulpin": "PARCEL_EXPORT_TEST-BLDGEXPO-F03-UB01-ttnfv2u"
      },
      "geometry": {
        "type": "MultiPolygon",
        "coordinates": [
          [
            [
              [
                77.2304495,
                28.61329575
              ],
              [
                77.2304495,
                28.6131227
              ],
              [
                77.23007335480627,
                28.61329575
              ],
              [
                77.2304495,
                28.61329575
              ]
            ]
          ],
          [
            [
              [
                77.22942155000001,
                28.61329575
              ],
              [
                77.22989931022593,
                28.61329575
              ],
              [
                77.2301035,
                28.6127095
              ],
              [
                77.22942155000001,
                28.612626725252596
              ],
              [
                77.22942155000001,
                28.61329575
              ]
            ]
          ]
        ]
      }
    },
    {
      "type": "Feature",
      "id": "UNIT_F03_A02",
      "properties": {
        "type": "Unit",
        "unit_id": "UNIT_F03_A02",
        "floor": 3,
        "label": "A02",
        "z_min": 7.0,
        "z_max": 10.5,
        "area_sqm": 9175.47,
        "ulpin": "PARCEL_EXPORT_TEST-BLDGEXPO-F03-UA02-ttnfv2u"
      },
      "geometry": {
        "type": "Polygon",
        "coordinates": [
          [
            [
              77.22942155000001,
              28.61329575
            ],
            [
              77.22850625,
              28.61329575
            ],
            [
              77.2283936,
              28.6140622
            ],
            [
              77.22942155000001,
              28.6140622
            ],
            [
              77.22942155000001,
              28.61329575
            ]
          ]
        ]
      }
    },
    {
      "type": "Feature",
      "id": "UNIT_F03_B02",
      "properties": {
        "type": "Unit",
        "unit_id": "UNIT_F03_B02",
        "floor": 3,
        "label": "B02",
        "z_min": 7.0,
        "z_max": 10.5,
        "area_sqm": 9605.14,
        "ulpin": "PARCEL_EXPORT_TEST-BLDGEXPO-F03-UB02-ttnfv2v"
      },
      "geometry": {
        "type": "Polygon",
        "coordinates": [
          [
            [
              77.2304495,
              28.6140622
            ],
            [
              77.2304495,
              28.61329575
            ],
            [
              77.23007335480627,
              28.61329575
            ],
            [
              77.2298661,
              28.6133911
            ],
            [
              77.22989931022593,
              28.61329575
            ],
            [
              77.22942155000001,
              28.61329575
            ],
            [
              77.22942155000001,
              28.6140622
            ],
            [
              77.2304495,
              28.6140622
            ]
          ]
        ]
      }
    },
    {
      "type": "Feature",
      "id": "UNIT_F04_A01",
      "properties": {
        "type": "Unit",
        "unit_id": "UNIT_F04_A01",
        "floor": 4,
        "label": "A01",
        "z_min": 10.5,
        "z_max": 14.0,
        "area_sqm": 7629.93,
        "ulpin": "PARCEL_EXPORT_TEST-BLDGEXPO-F04-UA01-ttnfv2u"
      },
      "geometry": {
        "type": "Polygon",
        "coordinates": [
          [
            [
              77.22942155000001,
              28.61329575
            ],
            [
              77.22942155000001,
              28.612626725252596
            ],
            [
              77.2286189,
              28.6125293
            ],
            [
              77.22850625,
              28.61329575
            ],
            [
              77.22942155000001,
              28.61329575
            ]
          ]
        ]
      }
    },
    {
      "type": "Feature",
      "id": "UNIT_F04_B01",
      "properties": {
        "type": "Unit",
        "unit_id": "UNIT_F04_B01",
        "floor": 4,
        "label": "B01",
        "z_min": 10.5,
        "z_max": 14.0,
        "area_sqm": 4937.15,
        "ulpin": "PARCEL_EXPORT_TEST-BLDGEXPO-F04-UB01-ttnfv2u"
      },
      "geometry": {
        "type": "MultiPolygon",
        "coordinates": [
          [
            [
              [
                77.2304495,
                28.61329575
              ],
              [
                77.2304495,
                28.6131227
              ],
              [
                77.23007335480627,
                28.61329575
              ],
              [
                77.2304495,
                28.61329575
              ]
            ]
          ],
          [
            [
              [
                77.22942155000001,
                28.61329575
              ],
              [
                77.22989931022593,
                28.61329575
              ],
              [
                77.2301035,
                28.6127095
              ],
              [
                77.22942155000001,
                28.612626725252596
              ],
              [
                77.22942155000001,
                28.61329575
              ]
            ]
          ]
        ]
      }
    },
    {
      "type": "Feature",
      "id": "UNIT_F04_A02",
      "properties": {
        "type": "Unit",
        "unit_id": "UNIT_F04_A02",
        "floor": 4,
        "label": "A02",
        "z_min": 10.5,
        "z_max": 14.0,
        "area_sqm": 9175.47,
        "ulpin": "PARCEL_EXPORT_TEST-BLDGEXPO-F04-UA02-ttnfv2u"
      },
      "geometry": {
        "type": "Polygon",
        "coordinates": [
          [
            [
              77.22942155000001,
              28.61329575
            ],
            [
              77.22850625,
              28.61329575
            ],
            [
              77.2283936,
              28.6140622
            ],
            [
              77.22942155000001,
              28.6140622
            ],
            [
              77.22942155000001,
              28.61329575
            ]
          ]
        ]
      }
    },
    {
      "type": "Feature",
      "id": "UNIT_F04_B02",
      "properties": {
        "type": "Unit",
        "unit_id": "UNIT_F04_B02",
        "floor": 4,
        "label": "B02",
        "z_min": 10.5,
        "z_max": 14.0,
        "area_sqm": 9605.14,
        "ulpin": "PARCEL_EXPORT_TEST-BLDGEXPO-F04-UB02-ttnfv2v"
      },
      "geometry": {
        "type": "Polygon",
        "coordinates": [
          [
            [
              77.2304495,
              28.6140622
            ],
            [
              77.2304495,
              28.61329575
            ],
            [
              77.23007335480627,
              28.61329575
            ],
            [
              77.2298661,
              28.6133911
            ],
            [
              77.22989931022593,
              28.61329575
            ],
            [
              77.22942155000001,
              28.61329575
            ],
            [
              77.22942155000001,
              28.6140622
            ],
            [
              77.2304495,
              28.6140622
            ]
          ]
        ]
      }
    }
  ]
}