{
  "type": "FeatureCollection",
  "name": "3D ULPIN \u2014 bldg-narela-gps-001",
  "crs": {
    "type": "name",
    "properties": {
      "name": "urn:ogc:def:crs:OGC:1.3:CRS84"
    }
  },
  "features": [
    {
      "type": "Feature",
      "id": "bldg-narela-gps-001",
      "properties": {
        "type": "Building",
        "building_id": "bldg-narela-gps-001",
        "height_m": 17.5,
        "floor_count": 5,
        "total_units": 20
      },
      "geometry": {
        "type": "Polygon",
        "coordinates": [
          [
            [
              77.0960319,
              28.8548979
            ],
            [
              77.095871,
              28.8530972
            ],
            [
              77.0976493,
              28.8530972
            ],
            [
              77.0979269,
              28.8544433
            ],
            [
              77.0970216,
              28.8544715
            ],
            [
              77.0979269,
              28.8548979
            ],
            [
              77.0960319,
              28.8548979
            ]
          ]
        ]
      }
    },
    {
      "type": "Feature",
      "id": "UNIT_F01_A01",
      "properties": {
        "type": "Unit",
        "unit_id": "UNIT_F01_A01",
        "floor": 1,
        "label": "A01",
        "z_min": 0.0,
        "z_max": 3.5,
        "area_sqm": 10957.04,
        "ulpin": "PARCEL_NARELA_GPS_001-BLDGNARE-F01-UA01-ttnu4ke"
      },
      "geometry": {
        "type": "Polygon",
        "coordinates": [
          [
            [
              77.09689895,
              28.853997550000003
            ],
            [
              77.09689895,
              28.8530972
            ],
            [
              77.095871,
              28.8530972
            ],
            [
              77.09595145,
              28.853997550000003
            ],
            [
              77.09689895,
              28.853997550000003
            ]
          ]
        ]
      }
    },
    {
      "type": "Feature",
      "id": "UNIT_F01_B01",
      "properties": {
        "type": "Unit",
        "unit_id": "UNIT_F01_B01",
        "floor": 1,
        "label": "B01",
        "z_min": 0.0,
        "z_max": 3.5,
        "area_sqm": 9353.66,
        "ulpin": "PARCEL_NARELA_GPS_001-BLDGNARE-F01-UB01-ttnu4ks"
      },
      "geometry": {
        "type": "Polygon",
        "coordinates": [
          [
            [
              77.09689895,
              28.853997550000003
            ],
            [
              77.09783497503157,
              28.853997550000003
            ],
            [
              77.0976493,
              28.8530972
            ],
            [
              77.09689895,
              28.8530972
            ],
            [
              77.09689895,
              28.853997550000003
            ]
          ]
        ]
      }
    },
    {
      "type": "Feature",
      "id": "UNIT_F01_A02",
      "properties": {
        "type": "Unit",
        "unit_id": "UNIT_F01_A02",
        "floor": 1,
        "label": "A02",
        "z_min": 0.0,
        "z_max": 3.5,
        "area_sqm": 10064.59,
        "ulpin": "PARCEL_NARELA_GPS_001-BLDGNARE-F01-UA02-ttnu4kg"
      },
      "geometry": {
        "type": "Polygon",
        "coordinates": [
          [
            [
              77.09689895,
              28.853997550000003
            ],
            [
              77.09595145,
              28.853997550000003
            ],
            [
              77.0960319,
              28.8548979
            ],
            [
              77.09689895,
              28.8548979
            ],
            [
              77.09689895,
              28.853997550000003
            ]
          ]
        ]
      }
    },
    {
      "type": "Feature",
      "id": "UNIT_F01_B02",
      "properties": {
        "type": "Unit",
        "unit_id": "UNIT_F01_B02",
        "floor": 1,
        "label": "B02",
        "z_min": 0.0,
        "z_max": 3.5,
        "area_sqm": 8615.49,
        "ulpin": "PARCEL_NARELA_GPS_001-BLDGNARE-F01-UB02-ttnu4ku"
      },
      "geometry": {
        "type": "Polygon",
        "coordinates": [
          [
            [
              77.09689895,
              28.853997550000003
            ],
            [
              77.09689895,
              28.8548979
            ],
            [
              77.0979269,
              28.8548979
            ],
            [
              77.0970216,
              28.8544715
            ],
            [
              77.0979269,
              28.8544433
            ],
            [
              77.09783497503157,
              28.853997550000003
            ],
            [
              77.09689895,
              28.853997550000003
            ]
          ]
        ]
      }
    },
    {
      "type": "Feature",
      "id": "UNIT_F02_A01",
      "properties": {
        "type": "Unit",
        "unit_id": "UNIT_F02_A01",
        "floor": 2,
        "label": "A01",
        "z_min": 3.5,
        "z_max": 7.0,
        "area_sqm": 10957.04,
        "ulpin": "PARCEL_NARELA_GPS_001-BLDGNARE-F02-UA01-ttnu4ke"
      },
      "geometry": {
        "type": "Polygon",
        "coordinates": [
          [
            [
              77.09689895,
              28.853997550000003
            ],
            [
              77.09689895,
              28.8530972
            ],
            [
              77.095871,
              28.8530972
            ],
            [
              77.09595145,
              28.853997550000003
            ],
            [
              77.09689895,
              28.853997550000003
            ]
          ]
        ]
      }
    },
    {
      "type": "Feature",
      "id": "UNIT_F02_B01",
      "properties": {
        "type": "Unit",
        "unit_id": "UNIT_F02_B01",
        "floor": 2,
        "label": "B01",
        "z_min": 3.5,
        "z_max": 7.0,
        "area_sqm": 9353.66,
        "ulpin": "PARCEL_NARELA_GPS_001-BLDGNARE-F02-UB01-ttnu4ks"
      },
      "geometry": {
        "type": "Polygon",
        "coordinates": [
          [
            [
              77.09689895,
              28.853997550000003
            ],
            [
              77.09783497503157,
              28.853997550000003
            ],
            [
              77.0976493,
              28.8530972
            ],
            [
              77.09689895,
              28.8530972
            ],
            [
              77.09689895,
              28.853997550000003
            ]
          ]
        ]
      }
    },
    {
      "type": "Feature",
      "id": "UNIT_F02_A02",
      "properties": {
        "type": "Unit",
        "unit_id": "UNIT_F02_A02",
        "floor": 2,
        "label": "A02",
        "z_min": 3.5,
        "z_max": 7.0,
        "area_sqm": 10064.59,
        "ulpin": "PARCEL_NARELA_GPS_001-BLDGNARE-F02-UA02-ttnu4kg"
      },
      "geometry": {
        "type": "Polygon",
        "coordinates": [
          [
            [
              77.09689895,
              28.853997550000003
            ],
            [
              77.09595145,
              28.853997550000003
            ],
            [
              77.0960319,
              28.8548979
            ],
            [
              77.09689895,
              28.8548979
            ],
            [
              77.09689895,
              28.853997550000003
            ]
          ]
        ]
      }
    },
    {
      "type": "Feature",
      "id": "UNIT_F02_B02",
      "properties": {
        "type": "Unit",
        "unit_id": "UNIT_F02_B02",
        "floor": 2,
        "label": "B02",
        "z_min": 3.5,
        "z_max": 7.0,
        "area_sqm": 8615.49,
        "ulpin": "PARCEL_NARELA_GPS_001-BLDGNARE-F02-UB02-ttnu4ku"
      },
      "geometry": {
        "type": "Polygon",
        "coordinates": [
          [
            [
              77.09689895,
              28.853997550000003
            ],
            [
              77.09689895,
              28.8548979
            ],
            [
              77.0979269,
              28.8548979
            ],
            [
              77.0970216,
              28.8544715
            ],
            [
              77.0979269,
              28.8544433
            ],
            [
              77.09783497503157,
              28.853997550000003
            ],
            [
              77.09689895,
              28.853997550000003
            ]
          ]
        ]
      }
    },
    {
      "type": "Feature",
      "id": "UNIT_F03_A01",
      "properties": {
        "type": "Unit",
        "unit_id": "UNIT_F03_A01",
        "floor": 3,
        "label": "A01",
        "z_min": 7.0,
        "z_max": 10.5,
        "area_sqm": 10957.04,
        "ulpin": "PARCEL_NARELA_GPS_001-BLDGNARE-F03-UA01-ttnu4ke"
      },
      "geometry": {
        "type": "Polygon",
        "coordinates": [
          [
            [
              77.09689895,
              28.853997550000003
            ],
            [
              77.09689895,
              28.8530972
            ],
            [
              77.095871,
              28.8530972
            ],
            [
              77.09595145,
              28.853997550000003
            ],
            [
              77.09689895,
              28.853997550000003
            ]
          ]
        ]
      }
    },
    {
      "type": "Feature",
      "id": "UNIT_F03_B01",
      "properties": {
        "type": "Unit",
        "unit_id": "UNIT_F03_B01",
        "floor": 3,
        "label": "B01",
        "z_min": 7.0,
        "z_max": 10.5,
        "area_sqm": 9353.66,
        "ulpin": "PARCEL_NARELA_GPS_001-BLDGNARE-F03-UB01-ttnu4ks"
      },
      "geometry": {
        "type": "Polygon",
        "coordinates": [
          [
            [
              77.09689895,
              28.853997550000003
            ],
            [
              77.09783497503157,
              28.853997550000003
            ],
            [
              77.0976493,
              28.8530972
            ],
            [
              77.09689895,
              28.8530972
            ],
            [
              77.09689895,
              28.853997550000003
            ]
          ]
        ]
      }
    },
    {
      "type": "Feature",
      "id": "UNIT_F03_A02",
      "properties": {
        "type": "Unit",
        "unit_id": "UNIT_F03_A02",
        "floor": 3,
        "label": "A02",
        "z_min": 7.0,
        "z_max": 10.5,
        "area_sqm": 10064.59,
        "ulpin": "PARCEL_NARELA_GPS_001-BLDGNARE-F03-UA02-ttnu4kg"
      },
      "geometry": {
        "type": "Polygon",
        "coordinates": [
          [
            [
              77.09689895,
              28.853997550000003
            ],
            [
              77.09595145,
              28.853997550000003
            ],
            [
              77.0960319,
              28.8548979
            ],
            [
              77.09689895,
              28.8548979
            ],
            [
              77.09689895,
              28.853997550000003
            ]
          ]
        ]
      }
    },
    {
      "type": "Feature",
      "id": "UNIT_F03_B02",
      "properties": {
        "type": "Unit",
        "unit_id": "UNIT_F03_B02",
        "floor": 3,
        "label": "B02",
        "z_min": 7.0,
        "z_max": 10.5,
        "area_sqm": 8615.49,
        "ulpin": "PARCEL_NARELA_GPS_001-BLDGNARE-F03-UB02-ttnu4ku"
      },
      "geometry": {
        "type": "Polygon",
        "coordinates": [
          [
            [
              77.09689895,
              28.853997550000003
            ],
            [
              77.09689895,
              28.8548979
            ],
            [
              77.0979269,
              28.8548979
            ],
            [
              77.0970216,
              28.8544715
            ],
            [
              77.0979269,
              28.8544433
            ],
            [
              77.09783497503157,
              28.853997550000003
            ],
            [
              77.09689895,
              28.853997550000003
            ]
          ]
        ]
      }
    },
    {
      "type": "Feature",
      "id": "UNIT_F04_A01",
      "properties": {
        "type": "Unit",
        "unit_id": "UNIT_F04_A01",
        "floor": 4,
        "label": "A01",
        "z_min": 10.5,
        "z_max": 14.0,
        "area_sqm": 10957.04,
        "ulpin": "PARCEL_NARELA_GPS_001-BLDGNARE-F04-UA01-ttnu4ke"
      },
      "geometry": {
        "type": "Polygon",
        "coordinates": [
          [
            [
              77.09689895,
              28.853997550000003
            ],
            [
              77.09689895,
              28.8530972
            ],
            [
              77.095871,
              28.8530972
            ],
            [
              77.09595145,
              28.853997550000003
            ],
            [
              77.09689895,
              28.853997550000003
            ]
          ]
        ]
      }
    },
    {
      "type": "Feature",
      "id": "UNIT_F04_B01",
      "properties": {
        "type": "Unit",
        "unit_id": "UNIT_F04_B01",
        "floor": 4,
        "label": "B01",
        "z_min": 10.5,
        "z_max": 14.0,
        "area_sqm": 9353.66,
        "ulpin": "PARCEL_NARELA_GPS_001-BLDGNARE-F04-UB01-ttnu4ks"
      },
      "geometry": {
        "type": "Polygon",
        "coordinates": [
          [
            [
              77.09689895,
              28.853997550000003
            ],
            [
              77.09783497503157,
              28.853997550000003
            ],
            [
              77.0976493,
              28.8530972
            ],
            [
              77.09689895,
              28.8530972
            ],
            [
              77.09689895,
              28.853997550000003
            ]
          ]
        ]
      }
    },
    {
      "type": "Feature",
      "id": "UNIT_F04_A02",
      "properties": {
        "type": "Unit",
        "unit_id": "UNIT_F04_A02",
        "floor": 4,
        "label": "A02",
        "z_min": 10.5,
        "z_max": 14.0,
        "area_sqm": 10064.59,
        "ulpin": "PARCEL_NARELA_GPS_001-BLDGNARE-F04-UA02-ttnu4kg"
      },
      "geometry": {
        "type": "Polygon",
        "coordinates": [
          [
            [
              77.09689895,
              28.853997550000003
            ],
            [
              77.09595145,
              28.853997550000003
            ],
            [
              77.0960319,
              28.8548979
            ],
            [
              77.09689895,
              28.8548979
            ],
            [
              77.09689895,
              28.853997550000003
            ]
          ]
        ]
      }
    },
    {
      "type": "Feature",
      "id": "UNIT_F04_B02",
      "properties": {
        "type": "Unit",
        "unit_id": "UNIT_F04_B02",
        "floor": 4,
        "label": "B02",
        "z_min": 10.5,
        "z_max": 14.0,
        "area_sqm": 8615.49,
        "ulpin": "PARCEL_NARELA_GPS_001-BLDGNARE-F04-UB02-ttnu4ku"
      },
      "geometry": {
        "type": "Polygon",
        "coordinates": [
          [
            [
              77.09689895,
              28.853997550000003
            ],
            [
              77.09689895,
              28.8548979
            ],
            [
              77.0979269,
              28.8548979
            ],
            [
              77.0970216,
              28.8544715
            ],
            [
              77.0979269,
              28.8544433
            ],
            [
              77.09783497503157,
              28.853997550000003
            ],
            [
              77.09689895,
              28.853997550000003
            ]
          ]
        ]
      }
    },
    {
      "type": "Feature",
      "id": "UNIT_F05_A01",
      "properties": {
        "type": "Unit",
        "unit_id": "UNIT_F05_A01",
        "floor": 5,
        "label": "A01",
        "z_min": 14.0,
        "z_max": 17.5,
        "area_sqm": 10957.04,
        "ulpin": "PARCEL_NARELA_GPS_001-BLDGNARE-F05-UA01-ttnu4ke"
      },
      "geometry": {
        "type": "Polygon",
        "coordinates": [
          [
            [
              77.09689895,
              28.853997550000003
            ],
            [
              77.09689895,
              28.8530972
            ],
            [
              77.095871,
              28.8530972
            ],
            [
              77.09595145,
              28.853997550000003
            ],
            [
              77.09689895,
              28.853997550000003
            ]
          ]
        ]
      }
    },
    {
      "type": "Feature",
      "id": "UNIT_F05_B01",
      "properties": {
        "type": "Unit",
        "unit_id": "UNIT_F05_B01",
        "floor": 5,
        "label": "B01",
        "z_min": 14.0,
        "z_max": 17.5,
        "area_sqm": 9353.66,
        "ulpin": "PARCEL_NARELA_GPS_001-BLDGNARE-F05-UB01-ttnu4ks"
      },
      "geometry": {
        "type": "Polygon",
        "coordinates": [
          [
            [
              77.09689895,
              28.853997550000003
            ],
            [
              77.09783497503157,
              28.853997550000003
            ],
            [
              77.0976493,
              28.8530972
            ],
            [
              77.09689895,
              28.8530972
            ],
            [
              77.09689895,
              28.853997550000003
            ]
          ]
        ]
      }
    },
    {
      "type": "Feature",
      "id": "UNIT_F05_A02",
      "properties": {
        "type": "Unit",
        "unit_id": "UNIT_F05_A02",
        "floor": 5,
        "label": "A02",
        "z_min": 14.0,
        "z_max": 17.5,
        "area_sqm": 10064.59,
        "ulpin": "PARCEL_NARELA_GPS_001-BLDGNARE-F05-UA02-ttnu4kg"
      },
      "geometry": {
        "type": "Polygon",
        "coordinates": [
          [
            [
              77.09689895,
              28.853997550000003
            ],
            [
              77.09595145,
              28.853997550000003
            ],
            [
              77.0960319,
              28.8548979
            ],
            [
              77.09689895,
              28.8548979
            ],
            [
              77.09689895,
              28.853997550000003
            ]
          ]
        ]
      }
    },
    {
      "type": "Feature",
      "id": "UNIT_F05_B02",
      "properties": {
        "type": "Unit",
        "unit_id": "UNIT_F05_B02",
        "floor": 5,
        "label": "B02",
        "z_min": 14.0,
        "z_max": 17.5,
        "area_sqm": 8615.49,
        "ulpin": "PARCEL_NARELA_GPS_001-BLDGNARE-F05-UB02-ttnu4ku"
      },
      "geometry": {
        "type": "Polygon",
        "coordinates": [
          [
            [
              77.09689895,
              28.853997550000003
            ],
            [
              77.09689895,
              28.8548979
            ],
            [
              77.0979269,
              28.8548979
            ],
            [
              77.0970216,
              28.8544715
            ],
            [
              77.0979269,
              28.8544433
            ],
            [
              77.09783497503157,
              28.853997550000003
            ],
            [
              77.09689895,
              28.853997550000003
            ]
          ]
        ]
      }
    }
  ]
}