{
  "type": "FeatureCollection",
  "name": "3D ULPIN \u2014 bldg-pancham-hospital-001",
  "crs": {
    "type": "name",
    "properties": {
      "name": "urn:ogc:def:crs:OGC:1.3:CRS84"
    }
  },
  "features": [
    {
      "type": "Feature",
      "id": "bldg-pancham-hospital-001",
      "properties": {
        "type": "Building",
        "building_id": "bldg-pancham-hospital-001",
        "height_m": 10.5,
        "floor_count": 3,
        "total_units": 12
      },
      "geometry": {
        "type": "Polygon",
        "coordinates": [
          [
            [
              76.681982,
              30.7335489
            ],
            [
              76.6819297,
              30.7327605
            ],
            [
              76.6811371,
              30.7324734
            ],
            [
              76.6811371,
              30.731806
            ],
            [
              76.683193,
              30.7318544
            ],
            [
              76.683193,
              30.7335732
            ],
            [
              76.681982,
              30.7335489
            ]
          ]
        ]
      }
    },
    {
      "type": "Feature",
      "id": "UNIT_F01_A01",
      "properties": {
        "type": "Unit",
        "unit_id": "UNIT_F01_A01",
        "floor": 1,
        "label": "A01",
        "z_min": 0.0,
        "z_max": 3.5,
        "area_sqm": 10242.91,
        "ulpin": "PARCEL_PANCHAM_HOSPITAL_MOHALI-BLDGPANC-F01-UA01-ttqwbft"
      },
      "geometry": {
        "type": "Polygon",
        "coordinates": [
          [
            [
              76.68216505000001,
              30.7326896
            ],
            [
              76.68216505000001,
              30.7318302
            ],
            [
              76.6811371,
              30.731806
            ],
            [
              76.6811371,
              30.7324734
            ],
            [
              76.68173396562173,
              30.7326896
            ],
            [
              76.68216505000001,
              30.7326896
            ]
          ]
        ]
      }
    },
    {
      "type": "Feature",
      "id": "UNIT_F01_B01",
      "properties": {
        "type": "Unit",
        "unit_id": "UNIT_F01_B01",
        "floor": 1,
        "label": "B01",
        "z_min": 0.0,
        "z_max": 3.5,
        "area_sqm": 10731.37,
        "ulpin": "PARCEL_PANCHAM_HOSPITAL_MOHALI-BLDGPANC-F01-UB01-ttqwbfw"
      },
      "geometry": {
        "type": "Polygon",
        "coordinates": [
          [
            [
              76.68216505000001,
              30.7326896
            ],
            [
              76.683193,
              30.7326896
            ],
            [
              76.683193,
              30.7318544
            ],
            [
              76.68216505000001,
              30.7318302
            ],
            [
              76.68216505000001,
              30.7326896
            ]
          ]
        ]
      }
    },
    {
      "type": "Feature",
      "id": "UNIT_F01_A02",
      "properties": {
        "type": "Unit",
        "unit_id": "UNIT_F01_A02",
        "floor": 1,
        "label": "A02",
        "z_min": 0.0,
        "z_max": 3.5,
        "area_sqm": 2327.37,
        "ulpin": "PARCEL_PANCHAM_HOSPITAL_MOHALI-BLDGPANC-F01-UA02-ttqwbfy"
      },
      "geometry": {
        "type": "Polygon",
        "coordinates": [
          [
            [
              76.68216505000001,
              30.7326896
            ],
            [
              76.68173396562173,
              30.7326896
            ],
            [
              76.6819297,
              30.7327605
            ],
            [
              76.681982,
              30.7335489
            ],
            [
              76.68216505000001,
              30.733552573092485
            ],
            [
              76.68216505000001,
              30.7326896
            ]
          ]
        ]
      }
    },
    {
      "type": "Feature",
      "id": "UNIT_F01_B02",
      "properties": {
        "type": "Unit",
        "unit_id": "UNIT_F01_B02",
        "floor": 1,
        "label": "B02",
        "z_min": 0.0,
        "z_max": 3.5,
        "area_sqm": 11060.5,
        "ulpin": "PARCEL_PANCHAM_HOSPITAL_MOHALI-BLDGPANC-F01-UB02-ttqwbfy"
      },
      "geometry": {
        "type": "Polygon",
        "coordinates": [
          [
            [
              76.68216505000001,
              30.7326896
            ],
            [
              76.68216505000001,
              30.733552573092485
            ],
            [
              76.683193,
              30.7335732
            ],
            [
              76.683193,
              30.7326896
            ],
            [
              76.68216505000001,
              30.7326896
            ]
          ]
        ]
      }
    },
    {
      "type": "Feature",
      "id": "UNIT_F02_A01",
      "properties": {
        "type": "Unit",
        "unit_id": "UNIT_F02_A01",
        "floor": 2,
        "label": "A01",
        "z_min": 3.5,
        "z_max": 7.0,
        "area_sqm": 10242.91,
        "ulpin": "PARCEL_PANCHAM_HOSPITAL_MOHALI-BLDGPANC-F02-UA01-ttqwbft"
      },
      "geometry": {
        "type": "Polygon",
        "coordinates": [
          [
            [
              76.68216505000001,
              30.7326896
            ],
            [
              76.68216505000001,
              30.7318302
            ],
            [
              76.6811371,
              30.731806
            ],
            [
              76.6811371,
              30.7324734
            ],
            [
              76.68173396562173,
              30.7326896
            ],
            [
              76.68216505000001,
              30.7326896
            ]
          ]
        ]
      }
    },
    {
      "type": "Feature",
      "id": "UNIT_F02_B01",
      "properties": {
        "type": "Unit",
        "unit_id": "UNIT_F02_B01",
        "floor": 2,
        "label": "B01",
        "z_min": 3.5,
        "z_max": 7.0,
        "area_sqm": 10731.37,
        "ulpin": "PARCEL_PANCHAM_HOSPITAL_MOHALI-BLDGPANC-F02-UB01-ttqwbfw"
      },
      "geometry": {
        "type": "Polygon",
        "coordinates": [
          [
            [
              76.68216505000001,
              30.7326896
            ],
            [
              76.683193,
              30.7326896
            ],
            [
              76.683193,
              30.7318544
            ],
            [
              76.68216505000001,
              30.7318302
            ],
            [
              76.68216505000001,
              30.7326896
            ]
          ]
        ]
      }
    },
    {
      "type": "Feature",
      "id": "UNIT_F02_A02",
      "properties": {
        "type": "Unit",
        "unit_id": "UNIT_F02_A02",
        "floor": 2,
        "label": "A02",
        "z_min": 3.5,
        "z_max": 7.0,
        "area_sqm": 2327.37,
        "ulpin": "PARCEL_PANCHAM_HOSPITAL_MOHALI-BLDGPANC-F02-UA02-ttqwbfy"
      },
      "geometry": {
        "type": "Polygon",
        "coordinates": [
          [
            [
              76.68216505000001,
              30.7326896
            ],
            [
              76.68173396562173,
              30.7326896
            ],
            [
              76.6819297,
              30.7327605
            ],
            [
              76.681982,
              30.7335489
            ],
            [
              76.68216505000001,
              30.733552573092485
            ],
            [
              76.68216505000001,
              30.7326896
            ]
          ]
        ]
      }
    },
    {
      "type": "Feature",
      "id": "UNIT_F02_B02",
      "properties": {
        "type": "Unit",
        "unit_id": "UNIT_F02_B02",
        "floor": 2,
        "label": "B02",
        "z_min": 3.5,
        "z_max": 7.0,
        "area_sqm": 11060.5,
        "ulpin": "PARCEL_PANCHAM_HOSPITAL_MOHALI-BLDGPANC-F02-UB02-ttqwbfy"
      },
      "geometry": {
        "type": "Polygon",
        "coordinates": [
          [
            [
              76.68216505000001,
              30.7326896
            ],
            [
              76.68216505000001,
              30.733552573092485
            ],
            [
              76.683193,
              30.7335732
            ],
            [
              76.683193,
              30.7326896
            ],
            [
              76.68216505000001,
              30.7326896
            ]
          ]
        ]
      }
    },
    {
      "type": "Feature",
      "id": "UNIT_F03_A01",
      "properties": {
        "type": "Unit",
        "unit_id": "UNIT_F03_A01",
        "floor": 3,
        "label": "A01",
        "z_min": 7.0,
        "z_max": 10.5,
        "area_sqm": 10242.91,
        "ulpin": "PARCEL_PANCHAM_HOSPITAL_MOHALI-BLDGPANC-F03-UA01-ttqwbft"
      },
      "geometry": {
        "type": "Polygon",
        "coordinates": [
          [
            [
              76.68216505000001,
              30.7326896
            ],
            [
              76.68216505000001,
              30.7318302
            ],
            [
              76.6811371,
              30.731806
            ],
            [
              76.6811371,
              30.7324734
            ],
            [
              76.68173396562173,
              30.7326896
            ],
            [
              76.68216505000001,
              30.7326896
            ]
          ]
        ]
      }
    },
    {
      "type": "Feature",
      "id": "UNIT_F03_B01",
      "properties": {
        "type": "Unit",
        "unit_id": "UNIT_F03_B01",
        "floor": 3,
        "label": "B01",
        "z_min": 7.0,
        "z_max": 10.5,
        "area_sqm": 10731.37,
        "ulpin": "PARCEL_PANCHAM_HOSPITAL_MOHALI-BLDGPANC-F03-UB01-ttqwbfw"
      },
      "geometry": {
        "type": "Polygon",
        "coordinates": [
          [
            [
              76.68216505000001,
              30.7326896
            ],
            [
              76.683193,
              30.7326896
            ],
            [
              76.683193,
              30.7318544
            ],
            [
              76.68216505000001,
              30.7318302
            ],
            [
              76.68216505000001,
              30.7326896
            ]
          ]
        ]
      }
    },
    {
      "type": "Feature",
      "id": "UNIT_F03_A02",
      "properties": {
        "type": "Unit",
        "unit_id": "UNIT_F03_A02",
        "floor": 3,
        "label": "A02",
        "z_min": 7.0,
        "z_max": 10.5,
        "area_sqm": 2327.37,
        "ulpin": "PARCEL_PANCHAM_HOSPITAL_MOHALI-BLDGPANC-F03-UA02-ttqwbfy"
      },
      "geometry": {
        "type": "Polygon",
        "coordinates": [
          [
            [
              76.68216505000001,
              30.7326896
            ],
            [
              76.68173396562173,
              30.7326896
            ],
            [
              76.6819297,
              30.7327605
            ],
            [
              76.681982,
              30.7335489
            ],
            [
              76.68216505000001,
              30.733552573092485
            ],
            [
              76.68216505000001,
              30.7326896
            ]
          ]
        ]
      }
    },
    {
      "type": "Feature",
      "id": "UNIT_F03_B02",
      "properties": {
        "type": "Unit",
        "unit_id": "UNIT_F03_B02",
        "floor": 3,
        "label": "B02",
        "z_min": 7.0,
        "z_max": 10.5,
        "area_sqm": 11060.5,
        "ulpin": "PARCEL_PANCHAM_HOSPITAL_MOHALI-BLDGPANC-F03-UB02-ttqwbfy"
      },
      "geometry": {
        "type": "Polygon",
        "coordinates": [
          [
            [
              76.68216505000001,
              30.7326896
            ],
            [
              76.68216505000001,
              30.733552573092485
            ],
            [
              76.683193,
              30.7335732
            ],
            [
              76.683193,
              30.7326896
            ],
            [
              76.68216505000001,
              30.7326896
            ]
          ]
        ]
      }
    }
  ]
}